{
  "type": "FeatureCollection",
  "features": [
    {
      "type": "Feature",
      "properties": {
        "norad_id": 36828,
        "name": "BEIDOU-2 IGSO-1 (C06)",
        "group": "beidou",
        "lat": 53.38231796752016,
        "lon": -91.12502495603763,
        "alt_km": 35878.84847462692,
        "timestamp": "2025-12-27T03:58:44.417638+00:00",
        "meta_object_name": "BEIDOU-2 IGSO-1 (C06)",
        "meta_object_id": "2010-036A",
        "meta_epoch": "2025-12-25T21:06:51.904224",
        "meta_mean_motion": 1.00272533,
        "meta_eccentricity": 0.00515074,
        "meta_inclination": 54.2892,
        "meta_ra_of_asc_node": 164.5291,
        "meta_arg_of_pericenter": 215.7944,
        "meta_mean_anomaly": 138.9488,
        "meta_ephemeris_type": 0,
        "meta_classification_type": "U",
        "meta_norad_cat_id": 36828,
        "meta_element_set_no": 999,
        "meta_rev_at_epoch": 5635,
        "meta_bstar": 0,
        "meta_mean_motion_dot": -5.2e-07,
        "meta_mean_motion_ddot": 0,
        "tle_line1": "1 36828U 10036A   25359.87976741 -.00000052  00000+0  00000+0 0  9996",
        "tle_line2": "2 36828  54.2892 164.5291 0051507 215.7944 138.9488  1.00272533 56350"
      },
      "geometry": {
        "type": "Point",
        "coordinates": [
          -91.12502495603763,
          53.38231796752016
        ]
      }
    },
    {
      "type": "Feature",
      "properties": {
        "norad_id": 37210,
        "name": "BEIDOU-2 G4 (C04)",
        "group": "beidou",
        "lat": -2.9520746390519705,
        "lon": -44.2781624883829,
        "alt_km": 35758.99427671316,
        "timestamp": "2025-12-27T03:58:44.417659+00:00",
        "meta_object_name": "BEIDOU-2 G4 (C04)",
        "meta_object_id": "2010-057A",
        "meta_epoch": "2025-12-26T19:05:50.023968",
        "meta_mean_motion": 1.00271236,
        "meta_eccentricity": 0.0010501,
        "meta_inclination": 3.2171,
        "meta_ra_of_asc_node": 69.8846,
        "meta_arg_of_pericenter": 194.1818,
        "meta_mean_anomaly": 278.0084,
        "meta_ephemeris_type": 0,
        "meta_classification_type": "U",
        "meta_norad_cat_id": 37210,
        "meta_element_set_no": 999,
        "meta_rev_at_epoch": 5556,
        "meta_bstar": 0,
        "meta_mean_motion_dot": -9.1e-07,
        "meta_mean_motion_ddot": 0,
        "tle_line1": "1 37210U 10057A   25360.79571787 -.00000091  00000+0  00000+0 0  9992",
        "tle_line2": "2 37210   3.2171  69.8846 0010501 194.1818 278.0084  1.00271236 55561"
      },
      "geometry": {
        "type": "Point",
        "coordinates": [
          -44.2781624883829,
          -2.9520746390519705
        ]
      }
    },
    {
      "type": "Feature",
      "properties": {
        "norad_id": 37256,
        "name": "BEIDOU-2 IGSO-2 (C07)",
        "group": "beidou",
        "lat": -7.3478409940956,
        "lon": -92.72164605302828,
        "alt_km": 35926.48453439654,
        "timestamp": "2025-12-27T03:58:44.417672+00:00",
        "meta_object_name": "BEIDOU-2 IGSO-2 (C07)",
        "meta_object_id": "2010-068A",
        "meta_epoch": "2025-12-26T15:56:02.027040",
        "meta_mean_motion": 1.00281973,
        "meta_eccentricity": 0.0048288,
        "meta_inclination": 47.8603,
        "meta_ra_of_asc_node": 273.9787,
        "meta_arg_of_pericenter": 215.9223,
        "meta_mean_anomaly": 312.6243,
        "meta_ephemeris_type": 0,
        "meta_classification_type": "U",
        "meta_norad_cat_id": 37256,
        "meta_element_set_no": 999,
        "meta_rev_at_epoch": 5506,
        "meta_bstar": 0,
        "meta_mean_motion_dot": -2.02e-06,
        "meta_mean_motion_ddot": 0,
        "tle_line1": "1 37256U 10068A   25360.66391235 -.00000202  00000+0  00000+0 0  9992",
        "tle_line2": "2 37256  47.8603 273.9787 0048288 215.9223 312.6243  1.00281973 55068"
      },
      "geometry": {
        "type": "Point",
        "coordinates": [
          -92.72164605302828,
          -7.3478409940956
        ]
      }
    },
    {
      "type": "Feature",
      "properties": {
        "norad_id": 37384,
        "name": "BEIDOU-2 IGSO-3 (C08)",
        "group": "beidou",
        "lat": -35.576173704473014,
        "lon": -115.99454358614148,
        "alt_km": 35668.24763517719,
        "timestamp": "2025-12-27T03:58:44.417683+00:00",
        "meta_object_name": "BEIDOU-2 IGSO-3 (C08)",
        "meta_object_id": "2011-013A",
        "meta_epoch": "2025-12-26T18:04:14.277792",
        "meta_mean_motion": 1.00267391,
        "meta_eccentricity": 0.0035119,
        "meta_inclination": 62.1613,
        "meta_ra_of_asc_node": 41.7837,
        "meta_arg_of_pericenter": 187.8187,
        "meta_mean_anomaly": 244.1436,
        "meta_ephemeris_type": 0,
        "meta_classification_type": "U",
        "meta_norad_cat_id": 37384,
        "meta_element_set_no": 999,
        "meta_rev_at_epoch": 5393,
        "meta_bstar": 0,
        "meta_mean_motion_dot": -1.71e-06,
        "meta_mean_motion_ddot": 0,
        "tle_line1": "1 37384U 11013A   25360.75294303 -.00000171  00000+0  00000+0 0  9998",
        "tle_line2": "2 37384  62.1613  41.7837 0035119 187.8187 244.1436  1.00267391 53938"
      },
      "geometry": {
        "type": "Point",
        "coordinates": [
          -115.99454358614148,
          -35.576173704473014
        ]
      }
    },
    {
      "type": "Feature",
      "properties": {
        "norad_id": 37763,
        "name": "BEIDOU-2 IGSO-4 (C09)",
        "group": "beidou",
        "lat": 53.816262736096405,
        "lon": -115.99478828440549,
        "alt_km": 36308.54100128216,
        "timestamp": "2025-12-27T03:58:44.417694+00:00",
        "meta_object_name": "BEIDOU-2 IGSO-4 (C09)",
        "meta_object_id": "2011-038A",
        "meta_epoch": "2025-12-21T10:06:26.864064",
        "meta_mean_motion": 1.00280083,
        "meta_eccentricity": 0.01491557,
        "meta_inclination": 54.5854,
        "meta_ra_of_asc_node": 167.2693,
        "meta_arg_of_pericenter": 230.0944,
        "meta_mean_anomaly": 299.1265,
        "meta_ephemeris_type": 0,
        "meta_classification_type": "U",
        "meta_norad_cat_id": 37763,
        "meta_element_set_no": 999,
        "meta_rev_at_epoch": 5286,
        "meta_bstar": 0,
        "meta_mean_motion_dot": 5.9e-07,
        "meta_mean_motion_ddot": 0,
        "tle_line1": "1 37763U 11038A   25355.42114426  .00000059  00000+0  00000+0 0  9995",
        "tle_line2": "2 37763  54.5854 167.2693 0149155 230.0944 299.1265  1.00280083 52867"
      },
      "geometry": {
        "type": "Point",
        "coordinates": [
          -115.99478828440549,
          53.816262736096405
        ]
      }
    },
    {
      "type": "Feature",
      "properties": {
        "norad_id": 37948,
        "name": "BEIDOU-2 IGSO-5 (C10)",
        "group": "beidou",
        "lat": -17.063501368931778,
        "lon": -102.34828783531962,
        "alt_km": 35974.102127527396,
        "timestamp": "2025-12-27T03:58:44.417706+00:00",
        "meta_object_name": "BEIDOU-2 IGSO-5 (C10)",
        "meta_object_id": "2011-073A",
        "meta_epoch": "2025-12-26T17:38:23.606880",
        "meta_mean_motion": 1.00287779,
        "meta_eccentricity": 0.0109636,
        "meta_inclination": 47.994,
        "meta_ra_of_asc_node": 273.6869,
        "meta_arg_of_pericenter": 222.0715,
        "meta_mean_anomaly": 318.062,
        "meta_ephemeris_type": 0,
        "meta_classification_type": "U",
        "meta_norad_cat_id": 37948,
        "meta_element_set_no": 999,
        "meta_rev_at_epoch": 5140,
        "meta_bstar": 0,
        "meta_mean_motion_dot": -1.46e-06,
        "meta_mean_motion_ddot": 0,
        "tle_line1": "1 37948U 11073A   25360.73499545 -.00000146  00000+0  00000+0 0  9995",
        "tle_line2": "2 37948  47.9940 273.6869 0109636 222.0715 318.0620  1.00287779 51402"
      },
      "geometry": {
        "type": "Point",
        "coordinates": [
          -102.34828783531962,
          -17.063501368931778
        ]
      }
    },
    {
      "type": "Feature",
      "properties": {
        "norad_id": 38091,
        "name": "BEIDOU-2 G5 (C05)",
        "group": "beidou",
        "lat": 1.863298936317646,
        "lon": -145.80802073515525,
        "alt_km": 35784.71240578896,
        "timestamp": "2025-12-27T03:58:44.417718+00:00",
        "meta_object_name": "BEIDOU-2 G5 (C05)",
        "meta_object_id": "2012-008A",
        "meta_epoch": "2025-12-26T19:04:51.568320",
        "meta_mean_motion": 1.00270233,
        "meta_eccentricity": 0.0013164,
        "meta_inclination": 3.142,
        "meta_ra_of_asc_node": 70.6563,
        "meta_arg_of_pericenter": 232.1676,
        "meta_mean_anomaly": 137.6483,
        "meta_ephemeris_type": 0,
        "meta_classification_type": "U",
        "meta_norad_cat_id": 38091,
        "meta_element_set_no": 999,
        "meta_rev_at_epoch": 5064,
        "meta_bstar": 0,
        "meta_mean_motion_dot": 7.8e-07,
        "meta_mean_motion_ddot": 0,
        "tle_line1": "1 38091U 12008A   25360.79504130  .00000078  00000+0  00000+0 0  9990",
        "tle_line2": "2 38091   3.1420  70.6563 0013164 232.1676 137.6483  1.00270233 50647"
      },
      "geometry": {
        "type": "Point",
        "coordinates": [
          -145.80802073515525,
          1.863298936317646
        ]
      }
    }
  ]
}